STARLINK-5067           
1 55653U 23021AB  24027.26435404  .00000732  00000+0  69127-4 0  9995
2 55653  70.0019 331.8517 0002596 252.4959 107.5917 14.98329379 53091
STARLINK-5070           
1 55654U 23021AC  24027.85269662  .00000232  00000+0  27269-4 0  9998
2 55654  70.0019 330.6994 0002677 252.4463 107.6404 14.98335371 52874
STARLINK-5267           
1 55655U 23021AD  24027.82325546 -.00000067  00000+0  21844-5 0  9991
2 55655  70.0018 310.7210 0002459 249.4816 110.6080 14.98329347 53365
STARLINK-5326           
1 55656U 23021AE  24027.26452117  .00001090  00000+0  99124-4 0  9996
2 55656  70.0020 331.8523 0002582 262.4854  97.6012 14.98327141 53093
STARLINK-5328           
1 55657U 23021AF  24027.83160216  .00000270  00000+0  30458-4 0  9990
2 55657  69.9999 310.7467 0002997 267.3953  92.6863 14.98333840 53365
STARLINK-5307           
1 55658U 23021AG  24027.27267840  .00004253  00000+0  36374-3 0  9997
2 55658  70.0013 331.8817 0002581 274.6220  85.4644 14.98356706 53099
STARLINK-5477           
1 55659U 23021AH  24027.22661324 -.00001050  00000+0 -80239-4 0  9992
2 55659  70.0009 312.2442 0003150 307.1747  52.9124 14.98309880 53577
STARLINK-5467           
1 55660U 23021AJ  24027.83594206  .00000146  00000+0  20028-4 0  9998
2 55660  70.0015 310.7660 0002568 260.5517  99.5352 14.98332305 53365
STARLINK-5475           
1 55661U 23021AK  24027.20989104  .00000803  00000+0  75070-4 0  9992
2 55661  70.0014 312.1920 0002584 252.6214 107.4662 14.98331161 53579
STARLINK-5479           
1 55662U 23021AL  24027.16818157  .00000340  00000+0  36252-4 0  9992
2 55662  70.0014 312.4584 0002388 253.4691 106.6206 14.98328899 53567
STARLINK-5473           
1 55663U 23021AM  24027.80238500  .00000423  00000+0  43275-4 0  9997
2 55663  70.0015 310.6472 0002501 254.1326 105.9557 14.98327306 53366
STARLINK-5480           
1 55664U 23021AN  24027.21824042  .00001260  00000+0  11335-3 0  9996
2 55664  70.0013 312.2196 0002545 258.7240 101.3633 14.98332329 53578
STARLINK-5474           
1 55665U 23021AP  24027.79821075 -.00000105  00000+0 -98953-6 0  9996
2 55665  70.0016 310.6336 0002550 252.1807 107.9074 14.98331860 53360
STARLINK-5456           
1 55667U 23021AR  24027.79423354 -.00001936  00000+0 -15463-3 0  9991
2 55667  70.0061 310.6280 0002003 201.4594 158.6481 14.98301598 53363
STARLINK-5455           
1 55668U 23021AS  24027.21406650  .00000699  00000+0  66348-4 0  9991
2 55668  70.0012 312.2045 0002512 257.7082 102.3795 14.98330201 53578
STARLINK-5459           
1 55669U 23021AT  24027.80655970  .00000502  00000+0  49881-4 0  9994
2 55669  70.0018 310.6627 0002459 251.2638 108.8255 14.98329446 53367
STARLINK-5423           
1 55670U 23021AU  24027.79408884 -.00004311  00000+0 -35413-3 0  9993
2 55670  70.0014 310.6177 0002371 260.8529  99.2362 14.98286882 53361
STARLINK-5460           
1 55671U 23021AV  24027.84011775  .00000332  00000+0  35639-4 0  9997
2 55671  70.0011 310.7678 0002645 253.4668 106.6201 14.98329839 53367
STARLINK-5461           
1 55672U 23021AW  24027.17427462  .00014872  00000+0  12363-2 0  9999
2 55672  70.0022 312.0631 0002613 256.9197 103.1671 14.98805645 53574
STARLINK-5463           
1 55673U 23021AX  24027.85662159  .00000355  00000+0  37504-4 0  9996
2 55673  70.0011 310.4337 0002642 257.3741 102.7123 14.98333216 53375
STARLINK-5462           
1 55674U 23021AY  24027.18067597  .00001049  00000+0  95681-4 0  9999
2 55674  70.0013 312.0879 0002557 249.5609 110.5276 14.98329770 53576
STARLINK-5232           
1 55675U 23021AZ  24027.83992573  .00000435  00000+0  44265-4 0  9993
2 55675  70.0014 310.3775 0002580 253.2549 106.8327 14.98333020 53371
STARLINK-5300           
1 55676U 23021BA  24027.79797511  .00002139  00000+0  18692-3 0  9991
2 55676  69.9993 290.7559 0002857 272.4582  87.6250 14.98342521 53853
STARLINK-5324           
1 55677U 23021BB  24027.84387333  .00000342  00000+0  36424-4 0  9993
2 55677  70.0006 290.5139 0002695 254.0287 106.0576 14.98333432 53861
STARLINK-5314           
1 55678U 23021BC  24027.85246785 -.00001116  00000+0 -85790-4 0  9992
2 55678  69.9986 310.4138 0003201 273.9486  86.1307 14.98319049 53376
STARLINK-30050          
1 55695U 23026A   24027.52418937  .00088178  00000+0  64574-3 0  9997
2 55695  42.9976  72.9942 0001612 263.2737  96.7948 15.72184215 53650
STARLINK-30040          
1 55697U 23026C   24027.56957024 -.00000638  00000+0 -15495-5 0  9995
2 55697  42.9974  59.8083 0000714 286.0610  74.0179 15.70294122 53578
STARLINK-30055          
1 55699U 23026E   24027.45124331  .00009919  00000+0  78482-4 0  9995
2 55699  42.9976  73.2863 0003056  39.1811 320.9278 15.71511828 53647
STARLINK-30064          
1 55700U 23026F   24027.51504017  .00031068  00000+0  24009-3 0  9993
2 55700  42.9989  72.9052 0000917 292.0445  68.0325 15.71294764 53657
STARLINK-30065          
1 55701U 23026G   24027.45263306 -.00056433  00000+0 -43173-3 0  9998
2 55701  42.9984  73.3093 0000443 152.9884 207.1007 15.71252823 53640
STARLINK-30051          
1 55704U 23026K   24024.75195342  .00005883  00000+0  48164-4 0  9992
2 55704  42.9991 122.5571 0000609 258.5433 101.5367 15.71409499 52846
STARLINK-30057          
1 55705U 23026L   24027.57187061  .00003745  00000+0  31984-4 0  9992
2 55705  42.9995  72.4769 0001145 271.2753  88.7983 15.71358311 53494
STARLINK-30060          
1 55707U 23026N   24027.57944355 -.00021885  00000+0 -16426-3 0  9991
2 55707  42.9995  72.5411 0000844 302.0083  58.0702 15.71302877 53490
STARLINK-30047          
1 55709U 23026Q   24025.34693917  .00008183  00000+0  65995-4 0  9991
2 55709  42.9991  85.8886 0001689 257.4102 102.6577 15.71279122 53317
STARLINK-30046          
1 55710U 23026R   24027.54848315  .00012547  00000+0  99062-4 0  9992
2 55710  42.9981  73.1692 0001714 254.1455 105.9223 15.71335674 53484
STARLINK-30037          
1 55712U 23026T   24027.54781907 -.00014096  00000+0 -10438-3 0  9999
2 55712  43.0000  66.8617 0000916   5.4114 354.6763 15.71323474 53553
STARLINK-30063          
1 55713U 23026U   24027.50741513  .00005229  00000+0  43280-4 0  9993
2 55713  42.9988  71.9626 0000369 242.6917 117.3913 15.71357976 53669
STARLINK-5592           
1 55741U 23028A   24027.38607464 -.00000722  00000+0 -52736-4 0  9999
2 55741  70.0005  31.8230 0002662 265.6107  94.4748 14.98327337 50543
STARLINK-5594           
1 55742U 23028B   24027.45701274 -.00000665  00000+0 -47955-4 0  9995
2 55742  70.0010  31.6709 0002278 261.8245  98.2656 14.98325207 50367
STARLINK-5602           
1 55743U 23028C   24027.46118279 -.00000422  00000+0 -27620-4 0  9992
2 55743  70.0003  31.6855 0002768 268.1032  91.9810 14.98327219 50367
STARLINK-5601           
1 55744U 23028D   24027.39040882  .00000361  00000+0  38036-4 0  9992
2 55744  70.0003  31.8383 0002661 260.8828  99.2030 14.98330575 50353
STARLINK-5565           
1 55745U 23028E   24027.39859668  .00000045  00000+0  11593-4 0  9991
2 55745  70.0005  31.8692 0002678 256.9833 103.1027 14.98329059 50355
STARLINK-5579           
1 55746U 23028F   24027.42778271  .00000242  00000+0  28071-4 0  9994
2 55746  69.9997  31.5678 0003000 269.1607  90.9208 14.98332639 50362
STARLINK-5539           
1 55747U 23028G   24027.44448811 -.00000739  00000+0 -54210-4 0  9998
2 55747  70.0017  31.6271 0002271 254.6517 105.4391 14.98323643 50367
STARLINK-5580           
1 55748U 23028H   24027.44031024 -.00001026  00000+0 -78185-4 0  9990
2 55748  70.0009  31.6125 0002611 261.4852  98.6011 14.98333787 50365
STARLINK-5560           
1 55749U 23028J   24027.42377646  .00000250  00000+0  28706-4 0  9992
2 55749  70.0006  31.5555 0002796 260.4098  99.6745 14.98330443 50365
STARLINK-5573           
1 55750U 23028K   24027.43613618 -.00000191  00000+0 -81795-5 0  9991
2 55750  70.0008  31.5986 0002702 256.6974 103.3884 14.98328559 50366
STARLINK-5577           
1 55751U 23028L   24027.44865738 -.00000256  00000+0 -13647-4 0  9997
2 55751  70.0005  31.6415 0002677 263.0697  97.0157 14.98329728 50368
STARLINK-5613           
1 55752U 23028M   24027.41108917 -.00000194  00000+0 -84716-5 0  9991
2 55752  70.0005  31.5098 0002612 263.6183  96.4678 14.98329591 50369
STARLINK-5617           
1 55753U 23028N   24027.43195789  .00000381  00000+0  39750-4 0  9990
2 55753  70.0009  31.5846 0002635 257.0107 103.0758 14.98332945 50364
STARLINK-5612           
1 55754U 23028P   24027.41944283  .00004905  00000+0  41858-3 0  9997
2 55754  70.0005  31.5391 0002964 267.3463  92.7357 14.98326736 50360
STARLINK-5619           
1 55755U 23028Q   24027.40708204  .00001309  00000+0  11741-3 0  9991
2 55755  70.0005  31.4886 0002423 263.2775  96.8109 14.98340421 50367
STARLINK-5614           
1 55756U 23028R   24027.40274859  .00000295  00000+0  32515-4 0  9992
2 55756  69.9998  31.4787 0002911 265.1761  94.9066 14.98329943 50361
STARLINK-5544           
1 55757U 23028S   24027.42361092  .00000350  00000+0  37098-4 0  9994
2 55757  70.0006  31.5544 0002783 261.5195  98.5648 14.98327017 50361
STARLINK-5072           
1 55758U 23028T   24027.41525441 -.00003165  00000+0 -25747-3 0  9990
2 55758  70.0003  31.5238 0002875 266.0488  94.0342 14.98340886 50367
STARLINK-5081           
1 55759U 23028U   24027.34827253 -.00033505  00000+0 -28003-2 0  9997
2 55759  70.0007  11.8601 0002772 263.3713  96.7130 14.98514417 50844
STARLINK-5532           
1 55760U 23028V   24027.40290936  .00000125  00000+0  18246-4 0  9998
2 55760  70.0002  31.4799 0002845 268.5979  91.4854 14.98325670 50362
STARLINK-5611           
1 55761U 23028W   24027.37766929  .00000033  00000+0  10583-4 0  9999
2 55761  70.0013  11.9166 0002693 258.8034 101.2822 14.98333801 50844
STARLINK-5603           
1 55762U 23028X   24027.36497390  .00000032  00000+0  10462-4 0  9997
2 55762  70.0013  11.8732 0002763 257.7094 102.3756 14.98331420 50848
